NORAD_CAT_ID,OBJECT_NAME,OBJECT_TYPE,EPOCH,MEAN_MOTION,ECCENTRICITY,INCLINATION,RA_OF_ASC_NODE,ARG_OF_PERICENTER,MEAN_ANOMALY,BSTAR,MEAN_MOTION_DOT,MEAN_MOTION_DDOT,TLE_LINE0,TLE_LINE1,TLE_LINE2,SEMIMAJOR_AXIS,PERIOD,APOGEE,PERIGEE,DECAYED
51964.0,STARLINK-3690,PAYLOAD,2023-10-27 09:45:02,15.08044135,0.0001672,53.0538,307.2261,88.4783,271.6398,0.00042443,6.33e-05,0.0,0 STARLINK-3690,1 51964U 22025J   23300.40628262  .00006330  00000-0  42443-3 0  9996,2 51964  53.0538 307.2261 0001672  88.4783 271.6398 15.08044135 91799,6920.314,95.488,543.336,541.022,0.0
51964.0,STARLINK-3690,PAYLOAD,2023-10-27 17:42:13,15.08026904,0.0001611,53.0536,305.7355,101.1812,258.9359,-6.3465e-06,-3.85e-06,0.0,0 STARLINK-3690,1 51964U 22025J   23300.73766163 -.00000385  00000-0 -63465-5 0  9990,2 51964  53.0536 305.7355 0001611 101.1812 258.9359 15.08026904 91848,6920.367,95.489,543.347,541.117,0.0
51964.0,STARLINK-3690,PAYLOAD,2023-10-28 09:36:36,15.08022395,0.0001633,53.053,302.752,98.8537,261.2638,1.3669e-05,-7.3e-07,0.0,0 STARLINK-3690,1 51964U 22025J   23301.40041931 -.00000073  00000-0  13669-4 0  9997,2 51964  53.0530 302.7520 0001633  98.8537 261.2638 15.08022395 91941,6920.381,95.489,543.376,541.116,0.0
51964.0,STARLINK-3690,PAYLOAD,2023-10-28 17:33:46,15.08030939,0.0001688,53.054,301.2607,98.8549,261.2632,0.00030292,4.433e-05,0.0,0 STARLINK-3690,1 51964U 22025J   23301.73179365  .00004433  00000-0  30292-3 0  9999,2 51964  53.0540 301.2607 0001688  98.8549 261.2632 15.08030939 90907,6920.354,95.489,543.388,541.051,0.0
51964.0,STARLINK-3690,PAYLOAD,2023-10-29 04:41:49,15.08054575,0.0001667,53.0525,299.173,102.7053,257.4123,0.0014587,0.00022512,0.0,0 STARLINK-3690,1 51964U 22025J   23302.19571607  .00022512  00000-0  14587-2 0  9991,2 51964  53.0525 299.1730 0001667 102.7053 257.4123 15.08054575 92067,6920.282,95.487,543.301,540.994,0.0
51964.0,STARLINK-3690,PAYLOAD,2023-10-29 06:17:15,15.08061999,0.0001668,53.0525,298.8745,104.3137,255.8038,0.0016743,0.00025899,0.0,0 STARLINK-3690,1 51964U 22025J   23302.26198933  .00025899  00000-0  16743-2 0  9993,2 51964  53.0525 298.8745 0001668 104.3137 255.8038 15.08061999 90985,6920.259,95.487,543.279,540.97,0.0
51964.0,STARLINK-3690,PAYLOAD,2023-10-29 17:25:18,15.08048922,0.0001868,53.0543,296.7857,101.0658,259.0542,0.0010229,0.00015683,0.0,0 STARLINK-3690,1 51964U 22025J   23302.72591422  .00015683  00000-0  10229-2 0  9997,2 51964  53.0543 296.7857 0001868 101.0658 259.0542 15.08048922 92147,6920.299,95.488,543.457,540.872,0.0
51964.0,STARLINK-3690,PAYLOAD,2023-10-30 04:33:22,15.08030498,0.0001758,53.053,294.6986,92.3462,267.7729,0.0012507,0.00019239,0.0,0 STARLINK-3690,1 51964U 22025J   23303.18984118  .00019239  00000-0  12507-2 0  9998,2 51964  53.0530 294.6986 0001758  92.3462 267.7729 15.08030498 92216,6920.356,95.489,543.437,541.004,0.0
51964.0,STARLINK-3690,PAYLOAD,2023-10-30 09:19:40,15.08036159,0.0001761,53.0536,293.8041,90.8934,269.2257,0.0015643,0.00024156,0.0,0 STARLINK-3690,1 51964U 22025J   23303.38866600  .00024156  00000-0  15643-2 0  9993,2 51964  53.0536 293.8041 0001761  90.8934 269.2257 15.08036159 91151,6920.339,95.488,543.422,540.985,0.0
51964.0,STARLINK-3690,PAYLOAD,2023-10-31 04:24:55,15.08030655,0.0001806,53.0546,290.2242,89.193,270.9267,0.00057808,8.725e-05,0.0,0 STARLINK-3690,1 51964U 22025J   23304.18397104  .00008725  00000-0  57808-3 0  9994,2 51964  53.0546 290.2242 0001806  89.1930 270.9267 15.08030655 92362,6920.355,95.489,543.47,540.971,0.0
51964.0,STARLINK-3690,PAYLOAD,2023-10-31 09:11:13,15.08036903,0.0001799,53.0536,289.3293,85.5636,274.5559,0.0007647,0.00011641,0.0,0 STARLINK-3690,1 51964U 22025J   23304.38279510  .00011641  00000-0  76470-3 0  9993,2 51964  53.0536 289.3293 0001799  85.5636 274.5559 15.08036903 91309,6920.336,95.488,543.446,540.956,0.0
51964.0,STARLINK-3690,PAYLOAD,2023-11-01 09:02:45,15.08053642,0.0001717,53.0554,284.8554,86.7736,273.3451,0.00090099,0.00013778,0.0,0 STARLINK-3690,1 51964U 22025J   23305.37691458  .00013778  00000-0  90099-3 0  9998,2 51964  53.0554 284.8554 0001717  86.7736 273.3451 15.08053642 92547,6920.285,95.487,543.338,540.962,0.0
51964.0,STARLINK-3690,PAYLOAD,2023-11-02 05:43:25,15.08044217,0.0001651,53.0544,280.978,98.0612,262.0565,0.00079035,0.00012045,0.0,0 STARLINK-3690,1 51964U 22025J   23306.23848836  .00012045  00000-0  79035-3 0  9991,2 51964  53.0544 280.9780 0001651  98.0612 262.0565 15.08044217 92673,6920.314,95.488,543.321,541.036,0.0
51964.0,STARLINK-3690,PAYLOAD,2023-11-02 08:54:17,15.08051234,0.0001631,53.0546,280.3812,95.4869,264.6307,0.0010759,0.00016513,0.0,0 STARLINK-3690,1 51964U 22025J   23306.37103698  .00016513  00000-0  10759-2 0  9997,2 51964  53.0546 280.3812 0001631  95.4869 264.6307 15.08051234 91609,6920.292,95.487,543.286,541.029,0.0
51964.0,STARLINK-3690,PAYLOAD,2023-11-02 15:16:02,15.08034403,0.0001766,53.054,279.1868,96.5673,263.5517,0.00040257,5.988e-05,0.0,0 STARLINK-3690,1 51964U 22025J   23306.63613780  .00005988  00000-0  40257-3 0  9995,2 51964  53.0540 279.1868 0001766  96.5673 263.5517 15.08034403 92739,6920.344,95.489,543.431,540.987,0.0
51964.0,STARLINK-3690,PAYLOAD,2023-11-02 21:37:47,15.08034305,0.0002257,53.0553,277.9963,93.3789,266.7459,0.00022758,3.259e-05,0.0,0 STARLINK-3690,1 51964U 22025J   23306.90124005  .00003259  00000-0  22758-3 0  9997,2 51964  53.0553 277.9963 0002257  93.3789 266.7459 15.08034305 91688,6920.344,95.489,543.771,540.647,0.0
51964.0,STARLINK-3690,PAYLOAD,2023-11-03 03:59:31,15.08027476,0.0002049,53.0562,276.8036,99.8753,260.2468,0.00014814,2.021e-05,0.0,0 STARLINK-3690,1 51964U 22025J   23307.16634129  .00002021  00000-0  14814-3 0  9999,2 51964  53.0562 276.8036 0002049  99.8753 260.2468 15.08027476 92814,6920.365,95.489,543.648,540.812,0.0
51964.0,STARLINK-3690,PAYLOAD,2023-11-03 07:10:23,15.08036224,0.0001779,53.0548,276.2041,108.9072,251.2111,0.00042434,6.327e-05,0.0,0 STARLINK-3690,1 51964U 22025J   23307.29888812  .00006327  00000-0  42434-3 0  9995,2 51964  53.0548 276.2041 0001779 108.9072 251.2111 15.08036224 91740,6920.338,95.488,543.434,540.972,0.0
51964.0,STARLINK-3690,PAYLOAD,2023-11-04 03:51:04,15.08038023,0.0001561,53.0536,272.328,94.7171,265.3997,0.00034407,5.076e-05,0.0,0 STARLINK-3690,1 51964U 22025J   23308.16046507  .00005076  00000-0  34407-3 0  9990,2 51964  53.0536 272.3280 0001561  94.7171 265.3997 15.08038023 92962,6920.333,95.488,543.278,541.118,0.0
51964.0,STARLINK-3690,PAYLOAD,2023-11-04 07:01:56,15.08044879,0.0001587,53.0534,271.7316,91.4599,268.6573,0.00085545,0.00013062,0.0,0 STARLINK-3690,1 51964U 22025J   23308.29301465  .00013062  00000-0  85545-3 0  9994,2 51964  53.0534 271.7316 0001587  91.4599 268.6573 15.08044879 91892,6920.312,95.488,543.275,541.079,0.0
51964.0,STARLINK-3690,PAYLOAD,2023-11-04 14:59:07,15.08029459,0.0001937,53.0543,270.2413,89.0014,271.1198,0.00039791,5.914e-05,0.0,0 STARLINK-3690,1 51964U 22025J   23308.62439488  .00005914  00000-0  39791-3 0  9997,2 51964  53.0543 270.2413 0001937  89.0014 271.1198 15.08029459 93035,6920.359,95.489,543.564,540.884,0.0
51964.0,STARLINK-3690,PAYLOAD,2023-11-05 03:42:36,15.08039936,0.0001315,53.0535,267.8551,92.6192,267.4948,0.00074549,0.00011342,0.0,0 STARLINK-3690,1 51964U 22025J   23309.15459150  .00011342  00000-0  74549-3 0  9996,2 51964  53.0535 267.8551 0001315  92.6192 267.4948 15.08039936 92028,6920.327,95.488,543.102,541.282,0.0
51964.0,STARLINK-3690,PAYLOAD,2023-11-05 14:50:39,15.08049113,0.0001844,53.0537,265.7667,99.2935,260.8264,0.00086553,0.00013222,0.0,0 STARLINK-3690,1 51964U 22025J   23309.61851245  .00013222  00000-0  86553-3 0  9995,2 51964  53.0537 265.7667 0001844  99.2935 260.8264 15.08049113 92093,6920.299,95.488,543.44,540.888,0.0
51964.0,STARLINK-3690,PAYLOAD,2023-11-06 03:34:07,15.08089085,0.0001712,53.0539,263.3785,109.4462,250.6713,0.0017728,0.00027466,0.0,0 STARLINK-3690,1 51964U 22025J   23310.14869553  .00027466  00000-0  17728-2 0  9998,2 51964  53.0539 263.3785 0001712 109.4462 250.6713 15.08089085 93261,6920.177,95.485,543.226,540.857,0.0
51964.0,STARLINK-3690,PAYLOAD,2023-11-06 06:44:58,15.08117262,0.0002194,53.0556,262.7808,111.8849,248.2374,0.0027419,0.00042763,0.0,0 STARLINK-3690,1 51964U 22025J   23310.28123753  .00042763  00000-0  27419-2 0  9993,2 51964  53.0556 262.7808 0002194 111.8849 248.2374 15.08117262 93287,6920.09,95.483,543.474,540.437,0.0
51964.0,STARLINK-3690,PAYLOAD,2023-11-07 03:25:40,15.07980199,0.0001452,53.0534,258.9073,105.4833,254.6317,0.00029038,4.232e-05,0.0,0 STARLINK-3690,1 51964U 22025J   23311.14283243  .00004232  00000-0  29038-3 0  9999,2 51964  53.0534 258.9073 0001452 105.4833 254.6317 15.07980199 93411,6920.51,95.492,543.38,541.37,0.0
51964.0,STARLINK-3690,PAYLOAD,2023-11-07 06:36:33,15.07976194,0.000136,53.0531,258.3097,101.9229,258.1913,0.0011085,0.00016988,0.0,0 STARLINK-3690,1 51964U 22025J   23311.27538728  .00016988  00000-0  11085-2 0  9997,2 51964  53.0531 258.3097 0001360 101.9229 258.1913 15.07976194 92348,6920.522,95.492,543.328,541.446,0.0
51964.0,STARLINK-3690,PAYLOAD,2023-11-08 03:17:14,15.08048551,0.0001327,53.0534,254.4326,90.8518,269.2624,0.0025758,0.00040064,0.0,0 STARLINK-3690,1 51964U 22025J   23312.13697085  .00040064  00000-0  25758-2 0  9999,2 51964  53.0534 254.4326 0001327  90.8518 269.2624 15.08048551 93568,6920.301,95.488,543.084,541.247,0.0
51964.0,STARLINK-3690,PAYLOAD,2023-11-09 03:08:46,15.08053288,0.0001296,53.0536,249.9586,86.4632,273.6506,0.0013232,0.00020387,0.0,0 STARLINK-3690,1 51964U 22025J   23313.13109196  .00020387  00000-0  13232-2 0  9991,2 51964  53.0536 249.9586 0001296  86.4632 273.6506 15.08053288 93718,6920.286,95.487,543.048,541.254,0.0
51964.0,STARLINK-3690,PAYLOAD,2023-11-10 03:00:18,15.08045335,0.0001337,53.0533,245.4908,111.1928,248.9205,0.0010767,0.00016523,0.0,0 STARLINK-3690,1 51964U 22025J   23314.12521665  .00016523  00000-0  10767-2 0  9997,2 51964  53.0533 245.4908 0001337 111.1928 248.9205 15.08045335 93865,6920.31,95.488,543.101,541.25,0.0
